FENGYUN 1C DEB          
1 30199U 99025VG  17345.69319854  .00000441  00000-0  19134-3 0  9992
2 30199  98.6731  27.1114 0092255 274.4499 202.8015 14.26933660566360
